ONEWEB-0600             
1 54664U 22166Y   23059.58334491 -.00983246  00000+0 -70423+0 0  9996
2 54664  87.1762 125.7048 0011512 337.1731 116.6750 14.00348006  1306
ONEWEB-0600             
1 54664U 22166Y   23060.00001157 -.00993116  00000+0 -72320+0 0  9990
2 54664  87.1845 125.5765 0011346 335.1825  57.2517 13.99445529 12734
ONEWEB-0600             
1 54664U 22166Y   23060.58334491 -.00983722  00000+0 -73216+0 0  9990
2 54664  87.1959 125.3958 0011394 333.8332 114.3395 13.98179745 12814
ONEWEB-0600             
1 54664U 22166Y   23061.00001157 -.00993478  00000+0 -75175+0 0  9993
2 54664  87.2042 125.2689 0011223 331.8210  51.6856 13.97274441  1307
ONEWEB-0600             
1 54664U 22166Y   23061.25001157 -.01073008  00000+0 -82279+0 0  9992
2 54664  87.2089 125.1921 0011028 331.6836 228.3514 13.96782374 12912
ONEWEB-0600             
1 54664U 22166Y   23061.83334491 -.01081560  00000+0 -84841+0 0  9995
2 54664  87.2206 125.0149 0010895 329.8369 280.2524 13.95514988 12994
ONEWEB-0600             
1 54664U 22166Y   23061.83334491 -.01081560  00000+0 -84841+0 0  9995
2 54664  87.2206 125.0149 0010895 329.8369 280.2524 13.95514988  1307
ONEWEB-0600             
1 54664U 22166Y   23062.50001157 -.00997413  00000+0 -79919+0 0  9992
2 54664  87.2334 124.8125 0011062 327.0294  28.4549 13.94020793 13086
ONEWEB-0600             
1 54664U 22166Y   23062.58334491 -.00988547  00000+0 -79416+0 0  9990
2 54664  87.2352 124.7875 0011133 327.1390  86.2711 13.93841201  1303
ONEWEB-0600             
1 54664U 22166Y   23062.91667824 -.01036130  00000+0 -84498+0 0  9995
2 54664  87.2417 124.6884 0010805 326.0845 318.4977 13.93137625  1304
